[{"OBJECT_NAME":"ISS (ZARYA)","OBJECT_ID":"1998-067A","EPOCH":"2026-04-16T20:16:06.009600","MEAN_MOTION":15.48789484,"ECCENTRICITY":0.00065733,"INCLINATION":51.6329,"RA_OF_ASC_NODE":243.6903,"ARG_OF_PERICENTER":315.5681,"MEAN_ANOMALY":44.478,"EPHEMERIS_TYPE":0,"CLASSIFICATION_TYPE":"U","NORAD_CAT_ID":25544,"ELEMENT_SET_NO":999,"REV_AT_EPOCH":56224,"BSTAR":8.5733361e-5,"MEAN_MOTION_DOT":4.242e-5,"MEAN_MOTION_DDOT":0},{"OBJECT_NAME":"POISK","OBJECT_ID":"2009-060A","EPOCH":"2026-04-16T20:16:06.009600","MEAN_MOTION":15.48789484,"ECCENTRICITY":0.00065733,"INCLINATION":51.6329,"RA_OF_ASC_NODE":243.6903,"ARG_OF_PERICENTER":315.5681,"MEAN_ANOMALY":44.478,"EPHEMERIS_TYPE":0,"CLASSIFICATION_TYPE":"U","NORAD_CAT_ID":36086,"ELEMENT_SET_NO":999,"REV_AT_EPOCH":56149,"BSTAR":8.5733361e-5,"MEAN_MOTION_DOT":4.242e-5,"MEAN_MOTION_DDOT":0},{"OBJECT_NAME":"CSS (TIANHE)","OBJECT_ID":"2021-035A","EPOCH":"2026-04-16T18:25:16.660416","MEAN_MOTION":15.62454512,"ECCENTRICITY":0.00058884,"INCLINATION":41.4683,"RA_OF_ASC_NODE":336.1456,"ARG_OF_PERICENTER":221.8434,"MEAN_ANOMALY":138.1956,"EPHEMERIS_TYPE":0,"CLASSIFICATION_TYPE":"U","NORAD_CAT_ID":48274,"ELEMENT_SET_NO":999,"REV_AT_EPOCH":28356,"BSTAR":0.00017822222,"MEAN_MOTION_DOT":0.00015996,"MEAN_MOTION_DDOT":0},{"OBJECT_NAME":"ISS (NAUKA)","OBJECT_ID":"2021-066A","EPOCH":"2026-04-16T20:16:06.009600","MEAN_MOTION":15.48789484,"ECCENTRICITY":0.00065733,"INCLINATION":51.6329,"RA_OF_ASC_NODE":243.6903,"ARG_OF_PERICENTER":315.5681,"MEAN_ANOMALY":44.478,"EPHEMERIS_TYPE":0,"CLASSIFICATION_TYPE":"U","NORAD_CAT_ID":49044,"ELEMENT_SET_NO":999,"REV_AT_EPOCH":56153,"BSTAR":8.5733361e-5,"MEAN_MOTION_DOT":4.242e-5,"MEAN_MOTION_DDOT":0},{"OBJECT_NAME":"FREGAT DEB","OBJECT_ID":"2011-037PF","EPOCH":"2026-04-16T22:45:36.461088","MEAN_MOTION":12.40991344,"ECCENTRICITY":0.09464401,"INCLINATION":51.6404,"RA_OF_ASC_NODE":185.8561,"ARG_OF_PERICENTER":147.1243,"MEAN_ANOMALY":219.2287,"EPHEMERIS_TYPE":0,"CLASSIFICATION_TYPE":"U","NORAD_CAT_ID":49271,"ELEMENT_SET_NO":999,"REV_AT_EPOCH":21744,"BSTAR":0.0010817998,"MEAN_MOTION_DOT":6.26e-6,"MEAN_MOTION_DDOT":0},{"OBJECT_NAME":"CSS (WENTIAN)","OBJECT_ID":"2022-085A","EPOCH":"2026-04-16T18:25:16.660416","MEAN_MOTION":15.62454512,"ECCENTRICITY":0.00058884,"INCLINATION":41.4683,"RA_OF_ASC_NODE":336.1456,"ARG_OF_PERICENTER":221.8434,"MEAN_ANOMALY":138.1956,"EPHEMERIS_TYPE":0,"CLASSIFICATION_TYPE":"U","NORAD_CAT_ID":53239,"ELEMENT_SET_NO":999,"REV_AT_EPOCH":28313,"BSTAR":0.00017822222,"MEAN_MOTION_DOT":0.00015996,"MEAN_MOTION_DDOT":0},{"OBJECT_NAME":"CSS (MENGTIAN)","OBJECT_ID":"2022-143A","EPOCH":"2026-04-16T18:25:16.660416","MEAN_MOTION":15.62454512,"ECCENTRICITY":0.00058884,"INCLINATION":41.4683,"RA_OF_ASC_NODE":336.1456,"ARG_OF_PERICENTER":221.8434,"MEAN_ANOMALY":138.1956,"EPHEMERIS_TYPE":0,"CLASSIFICATION_TYPE":"U","NORAD_CAT_ID":54216,"ELEMENT_SET_NO":999,"REV_AT_EPOCH":28415,"BSTAR":0.00017822222,"MEAN_MOTION_DOT":0.00015996,"MEAN_MOTION_DDOT":0},{"OBJECT_NAME":"TIANZHOU-9","OBJECT_ID":"2025-149A","EPOCH":"2026-04-16T18:25:16.660416","MEAN_MOTION":15.62454512,"ECCENTRICITY":0.00058884,"INCLINATION":41.4683,"RA_OF_ASC_NODE":336.1456,"ARG_OF_PERICENTER":221.8434,"MEAN_ANOMALY":138.1956,"EPHEMERIS_TYPE":0,"CLASSIFICATION_TYPE":"U","NORAD_CAT_ID":64786,"ELEMENT_SET_NO":999,"REV_AT_EPOCH":28415,"BSTAR":0.00017822222,"MEAN_MOTION_DOT":0.00015996,"MEAN_MOTION_DDOT":0},{"OBJECT_NAME":"PROGRESS-MS 32","OBJECT_ID":"2025-204A","EPOCH":"2026-04-16T20:16:06.009600","MEAN_MOTION":15.48789484,"ECCENTRICITY":0.00065733,"INCLINATION":51.6329,"RA_OF_ASC_NODE":243.6903,"ARG_OF_PERICENTER":315.5681,"MEAN_ANOMALY":44.478,"EPHEMERIS_TYPE":0,"CLASSIFICATION_TYPE":"U","NORAD_CAT_ID":65586,"ELEMENT_SET_NO":999,"REV_AT_EPOCH":55450,"BSTAR":8.5733361e-5,"MEAN_MOTION_DOT":4.242e-5,"MEAN_MOTION_DDOT":0},{"OBJECT_NAME":"YOTSUBA-KULOVER","OBJECT_ID":"1998-067XN","EPOCH":"2026-04-16T17:29:46.684320","MEAN_MOTION":16.36262631,"ECCENTRICITY":0.00098199,"INCLINATION":51.6034,"RA_OF_ASC_NODE":215.6287,"ARG_OF_PERICENTER":317.4833,"MEAN_ANOMALY":42.5431,"EPHEMERIS_TYPE":0,"CLASSIFICATION_TYPE":"U","NORAD_CAT_ID":65941,"ELEMENT_SET_NO":999,"REV_AT_EPOCH":2957,"BSTAR":0.00074115603,"MEAN_MOTION_DOT":0.0673931,"MEAN_MOTION_DDOT":1.2392633e-5},{"OBJECT_NAME":"BOTAN","OBJECT_ID":"1998-067XQ","EPOCH":"2026-04-16T12:45:00.477792","MEAN_MOTION":16.19082533,"ECCENTRICITY":0.00125565,"INCLINATION":51.6114,"RA_OF_ASC_NODE":217.3644,"ARG_OF_PERICENTER":327.0996,"MEAN_ANOMALY":32.9239,"EPHEMERIS_TYPE":0,"CLASSIFICATION_TYPE":"U","NORAD_CAT_ID":65943,"ELEMENT_SET_NO":999,"REV_AT_EPOCH":2953,"BSTAR":0.0009197384,"MEAN_MOTION_DOT":0.01732649,"MEAN_MOTION_DDOT":1.1841165e-5},{"OBJECT_NAME":"HRC MONOBLOCK CAMERA","OBJECT_ID":"1998-067XR","EPOCH":"2026-04-16T20:06:39.687840","MEAN_MOTION":15.66435427,"ECCENTRICITY":0.00041161,"INCLINATION":51.6267,"RA_OF_ASC_NODE":232.3847,"ARG_OF_PERICENTER":291.9705,"MEAN_ANOMALY":68.0853,"EPHEMERIS_TYPE":0,"CLASSIFICATION_TYPE":"U","NORAD_CAT_ID":66052,"ELEMENT_SET_NO":999,"REV_AT_EPOCH":2836,"BSTAR":0.00037310362,"MEAN_MOTION_DOT":0.00039233,"MEAN_MOTION_DDOT":0},{"OBJECT_NAME":"HTV-X1","OBJECT_ID":"2025-241A","EPOCH":"2026-04-16T17:35:14.499744","MEAN_MOTION":15.32663502,"ECCENTRICITY":0.00075542,"INCLINATION":51.6355,"RA_OF_ASC_NODE":249.6151,"ARG_OF_PERICENTER":320.0869,"MEAN_ANOMALY":39.9556,"EPHEMERIS_TYPE":0,"CLASSIFICATION_TYPE":"U","NORAD_CAT_ID":66174,"ELEMENT_SET_NO":999,"REV_AT_EPOCH":2677,"BSTAR":0.00016847493,"MEAN_MOTION_DOT":5.028e-5,"MEAN_MOTION_DDOT":0},{"OBJECT_NAME":"SZ-21 MODULE","OBJECT_ID":"2025-246C","EPOCH":"2026-04-15T23:11:02.179680","MEAN_MOTION":15.71515739,"ECCENTRICITY":0.00044703,"INCLINATION":41.4747,"RA_OF_ASC_NODE":333.3787,"ARG_OF_PERICENTER":276.9705,"MEAN_ANOMALY":83.0629,"EPHEMERIS_TYPE":0,"CLASSIFICATION_TYPE":"U","NORAD_CAT_ID":66515,"ELEMENT_SET_NO":999,"REV_AT_EPOCH":2393,"BSTAR":0.00019750179,"MEAN_MOTION_DOT":0.00025807,"MEAN_MOTION_DDOT":0},{"OBJECT_NAME":"SHENZHOU-22","OBJECT_ID":"2025-272A","EPOCH":"2026-04-16T18:25:16.660416","MEAN_MOTION":15.62454512,"ECCENTRICITY":0.00058884,"INCLINATION":41.4683,"RA_OF_ASC_NODE":336.1456,"ARG_OF_PERICENTER":221.8434,"MEAN_ANOMALY":138.1956,"EPHEMERIS_TYPE":0,"CLASSIFICATION_TYPE":"U","NORAD_CAT_ID":66645,"ELEMENT_SET_NO":999,"REV_AT_EPOCH":28415,"BSTAR":0.00017822222,"MEAN_MOTION_DOT":0.00015996,"MEAN_MOTION_DDOT":0},{"OBJECT_NAME":"SOYUZ-MS 28","OBJECT_ID":"2025-275A","EPOCH":"2026-04-16T20:16:06.009600","MEAN_MOTION":15.48789484,"ECCENTRICITY":0.00065733,"INCLINATION":51.6329,"RA_OF_ASC_NODE":243.6903,"ARG_OF_PERICENTER":315.5681,"MEAN_ANOMALY":44.478,"EPHEMERIS_TYPE":0,"CLASSIFICATION_TYPE":"U","NORAD_CAT_ID":66664,"ELEMENT_SET_NO":999,"REV_AT_EPOCH":56177,"BSTAR":8.5733361e-5,"MEAN_MOTION_DOT":4.242e-5,"MEAN_MOTION_DDOT":0}]
