ISS (ZARYA)             
1 25544U 98067A   26106.84451400  .00004242  00000+0  85733-4 0  9992
2 25544  51.6329 243.6903 0006573 315.5681  44.4780 15.48789484562249
CSS (TIANHE)            
1 48274U 21035A   26106.76755394  .00015996  00000+0  17822-3 0  9999
2 48274  41.4683 336.1456 0005888 221.8434 138.1956 15.62454512283566
HTV-X1                  
1 66174U 25241A   26106.73280671  .00005028  00000+0  16847-3 0  9990
2 66174  51.6355 249.6151 0007554 320.0869  39.9556 15.32663502 26770
SZ-21 MODULE            
1 66515U 25246C   26105.96599745  .00025807  00000+0  19750-3 0  9996
2 66515  41.4747 333.3787 0004470 276.9705  83.0629 15.71515739 23936
POISK                   
1 36086U 09060A   26106.84451400  .00004242  00000+0  85733-4 0  9990
2 36086  51.6329 243.6903 0006573 315.5681  44.4780 15.48789484561498
ISS (NAUKA)             
1 49044U 21066A   26106.84451400  .00004242  00000+0  85733-4 0  9998
2 49044  51.6329 243.6903 0006573 315.5681  44.4780 15.48789484561531
FREGAT DEB              
1 49271U 11037PF  26106.94833867  .00000626  00000+0  10818-2 0  9991
2 49271  51.6404 185.8561 0946440 147.1243 219.2287 12.40991344217444
CSS (WENTIAN)           
1 53239U 22085A   26106.76755394  .00015996  00000+0  17822-3 0  9992
2 53239  41.4683 336.1456 0005888 221.8434 138.1956 15.62454512283136
CSS (MENGTIAN)          
1 54216U 22143A   26106.76755394  .00015996  00000+0  17822-3 0  9993
2 54216  41.4683 336.1456 0005888 221.8434 138.1956 15.62454512284155
TIANZHOU-9              
1 64786U 25149A   26106.76755394  .00015996  00000+0  17822-3 0  9995
2 64786  41.4683 336.1456 0005888 221.8434 138.1956 15.62454512284158
PROGRESS-MS 32          
1 65586U 25204A   26106.84451400  .00004242  00000+0  85733-4 0  9995
2 65586  51.6329 243.6903 0006573 315.5681  44.4780 15.48789484554509
YOTSUBA-KULOVER         
1 65941U 98067XN  26106.72901255  .06739310  12393-4  74116-3 0  9994
2 65941  51.6034 215.6287 0009819 317.4833  42.5431 16.36262631 29571
BOTAN                   
1 65943U 98067XQ  26106.53125553  .01732649  11841-4  91974-3 0  9995
2 65943  51.6114 217.3644 0012556 327.0996  32.9239 16.19082533 29534
HRC MONOBLOCK CAMERA    
1 66052U 98067XR  26106.83795935  .00039233  00000+0  37310-3 0  9999
2 66052  51.6267 232.3847 0004116 291.9705  68.0853 15.66435427 28364
SHENZHOU-22             
1 66645U 25272A   26106.76755394  .00015996  00000+0  17822-3 0  9998
2 66645  41.4683 336.1456 0005888 221.8434 138.1956 15.62454512284154
SOYUZ-MS 28             
1 66664U 25275A   26106.84451400  .00004242  00000+0  85733-4 0  9991
2 66664  51.6329 243.6903 0006573 315.5681  44.4780 15.48789484561774
